CCSDS_OMM_VERS = 2.0
CREATION_DATE  = 
ORIGINATOR     = 

OBJECT_NAME    = SL-14 R/B
OBJECT_ID      = 1991-042B
CENTER_NAME    = EARTH
REF_FRAME      = TEME
TIME_SYSTEM    = UTC
MEAN_ELEMENT_THEORY = SGP/SGP4

EPOCH          = 2026-03-01T22:11:36.262464
MEAN_MOTION    = 14.81819875
ECCENTRICITY   = .001557
INCLINATION    = 82.4910
RA_OF_ASC_NODE = 227.4643
ARG_OF_PERICENTER = 266.4194
MEAN_ANOMALY   = 93.5239

EPHEMERIS_TYPE = 0
CLASSIFICATION_TYPE = U
NORAD_CAT_ID   = 21423
ELEMENT_SET_NO = 999
REV_AT_EPOCH   = 85192
BSTAR          = .66962E-4
MEAN_MOTION_DOT = .553E-5
MEAN_MOTION_DDOT = 0

CCSDS_OMM_VERS = 2.0
CREATION_DATE  = 
ORIGINATOR     = 

OBJECT_NAME    = ERS-1
OBJECT_ID      = 1991-050A
CENTER_NAME    = EARTH
REF_FRAME      = TEME
TIME_SYSTEM    = UTC
MEAN_ELEMENT_THEORY = SGP/SGP4

EPOCH          = 2026-03-02T01:13:35.256000
MEAN_MOTION    = 14.39442243
ECCENTRICITY   = .0031223
INCLINATION    = 98.7885
RA_OF_ASC_NODE = 79.0936
ARG_OF_PERICENTER = 223.4614
MEAN_ANOMALY   = 136.4111

EPHEMERIS_TYPE = 0
CLASSIFICATION_TYPE = U
NORAD_CAT_ID   = 21574
ELEMENT_SET_NO = 999
REV_AT_EPOCH   = 81463
BSTAR          = .13167E-3
MEAN_MOTION_DOT = .366E-5
MEAN_MOTION_DDOT = 0

CCSDS_OMM_VERS = 2.0
CREATION_DATE  = 
ORIGINATOR     = 

OBJECT_NAME    = ARIANE 40 R/B
OBJECT_ID      = 1991-050F
CENTER_NAME    = EARTH
REF_FRAME      = TEME
TIME_SYSTEM    = UTC
MEAN_ELEMENT_THEORY = SGP/SGP4

EPOCH          = 2026-03-02T02:53:07.490112
MEAN_MOTION    = 14.42886957
ECCENTRICITY   = .0004374
INCLINATION    = 98.2028
RA_OF_ASC_NODE = 113.6403
ARG_OF_PERICENTER = 97.6447
MEAN_ANOMALY   = 262.5241

EPHEMERIS_TYPE = 0
CLASSIFICATION_TYPE = U
NORAD_CAT_ID   = 21610
ELEMENT_SET_NO = 999
REV_AT_EPOCH   = 81790
BSTAR          = .11241E-3
MEAN_MOTION_DOT = .334E-5
MEAN_MOTION_DDOT = 0

CCSDS_OMM_VERS = 2.0
CREATION_DATE  = 
ORIGINATOR     = 

OBJECT_NAME    = INTERCOSMOS 25
OBJECT_ID      = 1991-086A
CENTER_NAME    = EARTH
REF_FRAME      = TEME
TIME_SYSTEM    = UTC
MEAN_ELEMENT_THEORY = SGP/SGP4

EPOCH          = 2026-03-02T03:28:58.437120
MEAN_MOTION    = 12.11974911
ECCENTRICITY   = .1487076
INCLINATION    = 82.6066
RA_OF_ASC_NODE = 314.5677
ARG_OF_PERICENTER = 133.1863
MEAN_ANOMALY   = 240.3557

EPHEMERIS_TYPE = 0
CLASSIFICATION_TYPE = U
NORAD_CAT_ID   = 21819
ELEMENT_SET_NO = 999
REV_AT_EPOCH   = 49577
BSTAR          = .30025E-3
MEAN_MOTION_DOT = .1565E-4
MEAN_MOTION_DDOT = 0

CCSDS_OMM_VERS = 2.0
CREATION_DATE  = 
ORIGINATOR     = 

OBJECT_NAME    = SL-8 R/B
OBJECT_ID      = 1992-008B
CENTER_NAME    = EARTH
REF_FRAME      = TEME
TIME_SYSTEM    = UTC
MEAN_ELEMENT_THEORY = SGP/SGP4

EPOCH          = 2026-03-02T02:19:28.426656
MEAN_MOTION    = 13.75969805
ECCENTRICITY   = .0035174
INCLINATION    = 82.9228
RA_OF_ASC_NODE = 273.4279
ARG_OF_PERICENTER = 154.0322
MEAN_ANOMALY   = 318.2643

EPHEMERIS_TYPE = 0
CLASSIFICATION_TYPE = U
NORAD_CAT_ID   = 21876
ELEMENT_SET_NO = 999
REV_AT_EPOCH   = 70837
BSTAR          = -.14145E-4
MEAN_MOTION_DOT = .2E-7
MEAN_MOTION_DDOT = 0

CCSDS_OMM_VERS = 2.0
CREATION_DATE  = 
ORIGINATOR     = 

OBJECT_NAME    = SL-8 R/B
OBJECT_ID      = 1992-020B
CENTER_NAME    = EARTH
REF_FRAME      = TEME
TIME_SYSTEM    = UTC
MEAN_ELEMENT_THEORY = SGP/SGP4

EPOCH          = 2026-03-01T18:35:36.750624
MEAN_MOTION    = 13.75548406
ECCENTRICITY   = .00279768
INCLINATION    = 82.9341
RA_OF_ASC_NODE = 159.6364
ARG_OF_PERICENTER = 321.8144
MEAN_ANOMALY   = 154.1826

EPHEMERIS_TYPE = 0
CLASSIFICATION_TYPE = U
NORAD_CAT_ID   = 21938
ELEMENT_SET_NO = 999
REV_AT_EPOCH   = 70004
BSTAR          = .62064229E-4
MEAN_MOTION_DOT = .75E-6
MEAN_MOTION_DDOT = 0

CCSDS_OMM_VERS = 2.0
CREATION_DATE  = 
ORIGINATOR     = 

OBJECT_NAME    = USA 81
OBJECT_ID      = 1992-023A
CENTER_NAME    = EARTH
REF_FRAME      = TEME
TIME_SYSTEM    = UTC
MEAN_ELEMENT_THEORY = SGP/SGP4

EPOCH          = 2026-03-02T04:24:59.516352
MEAN_MOTION    = 14.32364928
ECCENTRICITY   = .0002661
INCLINATION    = 85.0099
RA_OF_ASC_NODE = 135.7706
ARG_OF_PERICENTER = 83.7611
MEAN_ANOMALY   = 276.3885

EPHEMERIS_TYPE = 0
CLASSIFICATION_TYPE = U
NORAD_CAT_ID   = 21949
ELEMENT_SET_NO = 999
REV_AT_EPOCH   = 9371
BSTAR          = .65299E-4
MEAN_MOTION_DOT = .196E-5
MEAN_MOTION_DDOT = 0

CCSDS_OMM_VERS = 2.0
CREATION_DATE  = 
ORIGINATOR     = 

OBJECT_NAME    = COSMOS 2219
OBJECT_ID      = 1992-076A
CENTER_NAME    = EARTH
REF_FRAME      = TEME
TIME_SYSTEM    = UTC
MEAN_ELEMENT_THEORY = SGP/SGP4

EPOCH          = 2026-03-02T03:56:30.090624
MEAN_MOTION    = 14.14088115
ECCENTRICITY   = .0019388
INCLINATION    = 71.0614
RA_OF_ASC_NODE = 33.7984
ARG_OF_PERICENTER = 217.0746
MEAN_ANOMALY   = 142.9038

EPHEMERIS_TYPE = 0
CLASSIFICATION_TYPE = U
NORAD_CAT_ID   = 22219
ELEMENT_SET_NO = 999
REV_AT_EPOCH   = 71731
BSTAR          = .19659E-3
MEAN_MOTION_DOT = .328E-5
MEAN_MOTION_DDOT = 0

CCSDS_OMM_VERS = 2.0
CREATION_DATE  = 
ORIGINATOR     = 

OBJECT_NAME    = SL-16 R/B
OBJECT_ID      = 1992-076B
CENTER_NAME    = EARTH
REF_FRAME      = TEME
TIME_SYSTEM    = UTC
MEAN_ELEMENT_THEORY = SGP/SGP4

EPOCH          = 2026-03-02T03:56:33.607104
MEAN_MOTION    = 14.16859483
ECCENTRICITY   = .0010689
INCLINATION    = 70.9996
RA_OF_ASC_NODE = 204.2243
ARG_OF_PERICENTER = 110.1339
MEAN_ANOMALY   = 62.5274

EPHEMERIS_TYPE = 0
CLASSIFICATION_TYPE = U
NORAD_CAT_ID   = 22220
ELEMENT_SET_NO = 999
REV_AT_EPOCH   = 72076
BSTAR          = .92241E-4
MEAN_MOTION_DOT = .137E-5
MEAN_MOTION_DDOT = 0

CCSDS_OMM_VERS = 2.0
CREATION_DATE  = 
ORIGINATOR     = 

OBJECT_NAME    = COSMOS 2221
OBJECT_ID      = 1992-080A
CENTER_NAME    = EARTH
REF_FRAME      = TEME
TIME_SYSTEM    = UTC
MEAN_ELEMENT_THEORY = SGP/SGP4

EPOCH          = 2026-03-02T01:55:19.502976
MEAN_MOTION    = 14.96166119
ECCENTRICITY   = .0013373
INCLINATION    = 82.5020
RA_OF_ASC_NODE = 286.3711
ARG_OF_PERICENTER = 213.9642
MEAN_ANOMALY   = 146.0725

EPHEMERIS_TYPE = 0
CLASSIFICATION_TYPE = U
NORAD_CAT_ID   = 22236
ELEMENT_SET_NO = 999
REV_AT_EPOCH   = 77965
BSTAR          = .16879E-3
MEAN_MOTION_DOT = .1929E-4
MEAN_MOTION_DDOT = 0

CCSDS_OMM_VERS = 2.0
CREATION_DATE  = 
ORIGINATOR     = 

OBJECT_NAME    = SL-16 R/B
OBJECT_ID      = 1992-093B
CENTER_NAME    = EARTH
REF_FRAME      = TEME
TIME_SYSTEM    = UTC
MEAN_ELEMENT_THEORY = SGP/SGP4

EPOCH          = 2026-03-02T02:34:15.905856
MEAN_MOTION    = 14.15449651
ECCENTRICITY   = .000623
INCLINATION    = 71.0236
RA_OF_ASC_NODE = 20.1822
ARG_OF_PERICENTER = 301.8591
MEAN_ANOMALY   = 58.1926

EPHEMERIS_TYPE = 0
CLASSIFICATION_TYPE = U
NORAD_CAT_ID   = 22285
ELEMENT_SET_NO = 999
REV_AT_EPOCH   = 71208
BSTAR          = -.29084E-4
MEAN_MOTION_DOT = -.104E-5
MEAN_MOTION_DDOT = 0

CCSDS_OMM_VERS = 2.0
CREATION_DATE  = 
ORIGINATOR     = 

OBJECT_NAME    = COSMOS 2228
OBJECT_ID      = 1992-094A
CENTER_NAME    = EARTH
REF_FRAME      = TEME
TIME_SYSTEM    = UTC
MEAN_ELEMENT_THEORY = SGP/SGP4

EPOCH          = 2026-03-02T02:26:07.108224
MEAN_MOTION    = 14.97144133
ECCENTRICITY   = .0017276
INCLINATION    = 82.5144
RA_OF_ASC_NODE = 244.5774
ARG_OF_PERICENTER = 331.7122
MEAN_ANOMALY   = 28.3160

EPHEMERIS_TYPE = 0
CLASSIFICATION_TYPE = U
NORAD_CAT_ID   = 22286
ELEMENT_SET_NO = 999
REV_AT_EPOCH   = 77492
BSTAR          = .22641E-3
MEAN_MOTION_DOT = .2647E-4
MEAN_MOTION_DDOT = 0

