SL-14 R/B               
1 21423U 91042B   26060.92472526  .00000553  00000+0  66962-4 0  9994
2 21423  82.4910 227.4643 0015570 266.4194  93.5239 14.81819875851924
ERS-1                   
1 21574U 91050A   26061.05110250  .00000366  00000+0  13167-3 0  9998
2 21574  98.7885  79.0936 0031223 223.4614 136.4111 14.39442243814638
ARIANE 40 R/B           
1 21610U 91050F   26061.12022558  .00000334  00000+0  11241-3 0  9996
2 21610  98.2028 113.6403 0004374  97.6447 262.5241 14.42886957817905
INTERCOSMOS 25          
1 21819U 91086A   26061.14512080  .00001565  00000+0  30025-3 0  9990
2 21819  82.6066 314.5677 1487076 133.1863 240.3557 12.11974911495776
SL-8 R/B                
1 21876U 92008B   26061.09685679  .00000002  00000+0 -14145-4 0  9999
2 21876  82.9228 273.4279 0035174 154.0322 318.2643 13.75969805708373
SL-8 R/B                
1 21938U 92020B   26060.77473091  .00000075  00000+0  62064-4 0  9991
2 21938  82.9341 159.6364 0027976 321.8144 154.1826 13.75548406700041
USA 81                  
1 21949U 92023A   26061.18402218  .00000196  00000+0  65299-4 0  9992
2 21949  85.0099 135.7706 0002661  83.7611 276.3885 14.32364928 93719
COSMOS 2219             
1 22219U 92076A   26061.16423716  .00000328  00000+0  19659-3 0  9990
2 22219  71.0614  33.7984 0019388 217.0746 142.9038 14.14088115717316
SL-16 R/B               
1 22220U 92076B   26061.16427786  .00000137  00000+0  92241-4 0  9990
2 22220  70.9996 204.2243 0010689 110.1339  62.5274 14.16859483720766
COSMOS 2221             
1 22236U 92080A   26061.08008684  .00001929  00000+0  16879-3 0  9997
2 22236  82.5020 286.3711 0013373 213.9642 146.0725 14.96166119779659
SL-16 R/B               
1 22285U 92093B   26061.10712854 -.00000104  00000+0 -29084-4 0  9998
2 22285  71.0236  20.1822 0006230 301.8591  58.1926 14.15449651712082
COSMOS 2228             
1 22286U 92094A   26061.10147116  .00002647  00000+0  22641-3 0  9996
2 22286  82.5144 244.5774 0017276 331.7122  28.3160 14.97144133774927
